[
  {
    "COMMENT": "GENERATED VIA SPACETRACK.ORG API",
    "ORIGINATOR": "18 SPCS",
    "NORAD_CAT_ID": "43682",
    "OBJECT_NAME": "H-2A R/B",
    "OBJECT_TYPE": "ROCKET BODY",
    "CLASSIFICATION_TYPE": "U",
    "INTLDES": "18084L",
    "EPOCH": "2023-05-20 19:59:33",
    "EPOCH_MICROSECONDS": "166464",
    "MEAN_MOTION": "15.08263929",
    "ECCENTRICITY": "0.0050125",
    "INCLINATION": "98.8952",
    "RA_OF_ASC_NODE": "160.6606",
    "ARG_OF_PERICENTER": "232.7778",
    "MEAN_ANOMALY": "126.8867",
    "EPHEMERIS_TYPE": "0",
    "ELEMENT_SET_NO": "999",
    "REV_AT_EPOCH": "25009",
    "BSTAR": "0.00033472",
    "MEAN_MOTION_DOT": "0.00005253",
    "MEAN_MOTION_DDOT": "0",
    "FILE": "3913175",
    "TLE_LINE0": "0 H-2A R/B",
    "TLE_LINE1": "1 43682U 18084L   23140.83302276  .00005253  00000-0  33472-3 0  9992",
    "TLE_LINE2": "2 43682  98.8952 160.6606 0050125 232.7778 126.8867 15.08263929250099",
    "OBJECT_ID": "2018-084L",
    "OBJECT_NUMBER": "43682",
    "SEMIMAJOR_AXIS": "6919.642",
    "PERIOD": "95.474",
    "APOGEE": "576.191",
    "PERIGEE": "506.822",
    "DECAYED": "0"
  },
  {
    "COMMENT": "GENERATED VIA SPACETRACK.ORG API",
    "ORIGINATOR": "18 SPCS",
    "NORAD_CAT_ID": "43682",
    "OBJECT_NAME": "H-2A R/B",
    "OBJECT_TYPE": "ROCKET BODY",
    "CLASSIFICATION_TYPE": "U",
    "INTLDES": "18084L",
    "EPOCH": "2023-05-21 11:54:52",
    "EPOCH_MICROSECONDS": "513632",
    "MEAN_MOTION": "15.08269808",
    "ECCENTRICITY": "0.0050186",
    "INCLINATION": "98.895",
    "RA_OF_ASC_NODE": "161.4283",
    "ARG_OF_PERICENTER": "230.5585",
    "MEAN_ANOMALY": "129.1193",
    "EPHEMERIS_TYPE": "0",
    "ELEMENT_SET_NO": "999",
    "REV_AT_EPOCH": "25019",
    "BSTAR": "0.0003198",
    "MEAN_MOTION_DOT": "0.00005016",
    "MEAN_MOTION_DDOT": "0",
    "FILE": "3913738",
    "TLE_LINE0": "0 H-2A R/B",
    "TLE_LINE1": "1 43682U 18084L   23141.49644113  .00005016  00000-0  31980-3 0  9993",
    "TLE_LINE2": "2 43682  98.8950 161.4283 0050186 230.5585 129.1193 15.08269808250197",
    "OBJECT_ID": "2018-084L",
    "OBJECT_NUMBER": "43682",
    "SEMIMAJOR_AXIS": "6919.624",
    "PERIOD": "95.474",
    "APOGEE": "576.216",
    "PERIGEE": "506.762",
    "DECAYED": "0"
  },
  {
    "COMMENT": "GENERATED VIA SPACETRACK.ORG API",
    "ORIGINATOR": "18 SPCS",
    "NORAD_CAT_ID": "43682",
    "OBJECT_NAME": "H-2A R/B",
    "OBJECT_TYPE": "ROCKET BODY",
    "CLASSIFICATION_TYPE": "U",
    "INTLDES": "18084L",
    "EPOCH": "2023-05-21 15:05:56",
    "EPOCH_MICROSECONDS": "349024",
    "MEAN_MOTION": "15.08271125",
    "ECCENTRICITY": "0.0050196",
    "INCLINATION": "98.895",
    "RA_OF_ASC_NODE": "161.5818",
    "ARG_OF_PERICENTER": "230.1201",
    "MEAN_ANOMALY": "129.5603",
    "EPHEMERIS_TYPE": "0",
    "ELEMENT_SET_NO": "999",
    "REV_AT_EPOCH": "25021",
    "BSTAR": "0.00031676",
    "MEAN_MOTION_DOT": "0.00004968",
    "MEAN_MOTION_DDOT": "0",
    "FILE": "3914061",
    "TLE_LINE0": "0 H-2A R/B",
    "TLE_LINE1": "1 43682U 18084L   23141.62912441  .00004968  00000-0  31676-3 0  9997",
    "TLE_LINE2": "2 43682  98.8950 161.5818 0050196 230.1201 129.5603 15.08271125250212",
    "OBJECT_ID": "2018-084L",
    "OBJECT_NUMBER": "43682",
    "SEMIMAJOR_AXIS": "6919.620",
    "PERIOD": "95.474",
    "APOGEE": "576.218",
    "PERIGEE": "506.751",
    "DECAYED": "0"
  },
  {
    "COMMENT": "GENERATED VIA SPACETRACK.ORG API",
    "ORIGINATOR": "18 SPCS",
    "NORAD_CAT_ID": "43682",
    "OBJECT_NAME": "H-2A R/B",
    "OBJECT_TYPE": "ROCKET BODY",
    "CLASSIFICATION_TYPE": "U",
    "INTLDES": "18084L",
    "EPOCH": "2023-05-22 00:39:07",
    "EPOCH_MICROSECONDS": "775712",
    "MEAN_MOTION": "15.0827739",
    "ECCENTRICITY": "0.0050234",
    "INCLINATION": "98.8949",
    "RA_OF_ASC_NODE": "162.0423",
    "ARG_OF_PERICENTER": "228.8008",
    "MEAN_ANOMALY": "130.888",
    "EPHEMERIS_TYPE": "0",
    "ELEMENT_SET_NO": "999",
    "REV_AT_EPOCH": "25027",
    "BSTAR": "0.00037554",
    "MEAN_MOTION_DOT": "0.00005908",
    "MEAN_MOTION_DDOT": "0",
    "FILE": "3914196",
    "TLE_LINE0": "0 H-2A R/B",
    "TLE_LINE1": "1 43682U 18084L   23142.02717333  .00005908  00000-0  37554-3 0  9991",
    "TLE_LINE2": "2 43682  98.8949 162.0423 0050234 228.8008 130.8880 15.08277390250278",
    "OBJECT_ID": "2018-084L",
    "OBJECT_NUMBER": "43682",
    "SEMIMAJOR_AXIS": "6919.601",
    "PERIOD": "95.473",
    "APOGEE": "576.226",
    "PERIGEE": "506.706",
    "DECAYED": "0"
  },
  {
    "COMMENT": "GENERATED VIA SPACETRACK.ORG API",
    "ORIGINATOR": "18 SPCS",
    "NORAD_CAT_ID": "43682",
    "OBJECT_NAME": "H-2A R/B",
    "OBJECT_TYPE": "ROCKET BODY",
    "CLASSIFICATION_TYPE": "U",
    "INTLDES": "18084L",
    "EPOCH": "2023-05-22 11:47:50",
    "EPOCH_MICROSECONDS": "999136",
    "MEAN_MOTION": "15.08281019",
    "ECCENTRICITY": "0.0050275",
    "INCLINATION": "98.8949",
    "RA_OF_ASC_NODE": "162.5796",
    "ARG_OF_PERICENTER": "227.2894",
    "MEAN_ANOMALY": "132.4092",
    "EPHEMERIS_TYPE": "0",
    "ELEMENT_SET_NO": "999",
    "REV_AT_EPOCH": "25034",
    "BSTAR": "0.00033283",
    "MEAN_MOTION_DOT": "0.00005226",
    "MEAN_MOTION_DDOT": "0",
    "FILE": "3914693",
    "TLE_LINE0": "0 H-2A R/B",
    "TLE_LINE1": "1 43682U 18084L   23142.49156249  .00005226  00000-0  33283-3 0  9993",
    "TLE_LINE2": "2 43682  98.8949 162.5796 0050275 227.2894 132.4092 15.08281019250341",
    "OBJECT_ID": "2018-084L",
    "OBJECT_NUMBER": "43682",
    "SEMIMAJOR_AXIS": "6919.589",
    "PERIOD": "95.473",
    "APOGEE": "576.243",
    "PERIGEE": "506.666",
    "DECAYED": "0"
  },
  {
    "COMMENT": "GENERATED VIA SPACETRACK.ORG API",
    "ORIGINATOR": "18 SPCS",
    "NORAD_CAT_ID": "43682",
    "OBJECT_NAME": "H-2A R/B",
    "OBJECT_TYPE": "ROCKET BODY",
    "CLASSIFICATION_TYPE": "U",
    "INTLDES": "18084L",
    "EPOCH": "2023-05-22 19:45:30",
    "EPOCH_MICROSECONDS": "383712",
    "MEAN_MOTION": "15.08284103",
    "ECCENTRICITY": "0.0050307",
    "INCLINATION": "98.8948",
    "RA_OF_ASC_NODE": "162.9634",
    "ARG_OF_PERICENTER": "226.1841",
    "MEAN_ANOMALY": "133.5219",
    "EPHEMERIS_TYPE": "0",
    "ELEMENT_SET_NO": "999",
    "REV_AT_EPOCH": "25039",
    "BSTAR": "0.00032745",
    "MEAN_MOTION_DOT": "0.00005141",
    "MEAN_MOTION_DDOT": "0",
    "FILE": "3914964",
    "TLE_LINE0": "0 H-2A R/B",
    "TLE_LINE1": "1 43682U 18084L   23142.82326833  .00005141  00000-0  32745-3 0  9996",
    "TLE_LINE2": "2 43682  98.8948 162.9634 0050307 226.1841 133.5219 15.08284103250396",
    "OBJECT_ID": "2018-084L",
    "OBJECT_NUMBER": "43682",
    "SEMIMAJOR_AXIS": "6919.580",
    "PERIOD": "95.473",
    "APOGEE": "576.255",
    "PERIGEE": "506.635",
    "DECAYED": "0"
  },
  {
    "COMMENT": "GENERATED VIA SPACETRACK.ORG API",
    "ORIGINATOR": "18 SPCS",
    "NORAD_CAT_ID": "43682",
    "OBJECT_NAME": "H-2A R/B",
    "OBJECT_TYPE": "ROCKET BODY",
    "CLASSIFICATION_TYPE": "U",
    "INTLDES": "18084L",
    "EPOCH": "2023-05-23 06:54:13",
    "EPOCH_MICROSECONDS": "405824",
    "MEAN_MOTION": "15.08288951",
    "ECCENTRICITY": "0.0050384",
    "INCLINATION": "98.8948",
    "RA_OF_ASC_NODE": "163.5007",
    "ARG_OF_PERICENTER": "224.6353",
    "MEAN_ANOMALY": "135.081",
    "EPHEMERIS_TYPE": "0",
    "ELEMENT_SET_NO": "999",
    "REV_AT_EPOCH": "25046",
    "BSTAR": "0.00033807",
    "MEAN_MOTION_DOT": "0.00005312",
    "MEAN_MOTION_DDOT": "0",
    "FILE": "3915353",
    "TLE_LINE0": "0 H-2A R/B",
    "TLE_LINE1": "1 43682U 18084L   23143.28765516  .00005312  00000-0  33807-3 0  9992",
    "TLE_LINE2": "2 43682  98.8948 163.5007 0050384 224.6353 135.0810 15.08288951250460",
    "OBJECT_ID": "2018-084L",
    "OBJECT_NUMBER": "43682",
    "SEMIMAJOR_AXIS": "6919.565",
    "PERIOD": "95.472",
    "APOGEE": "576.294",
    "PERIGEE": "506.567",
    "DECAYED": "0"
  },
  {
    "COMMENT": "GENERATED VIA SPACETRACK.ORG API",
    "ORIGINATOR": "18 SPCS",
    "NORAD_CAT_ID": "43682",
    "OBJECT_NAME": "H-2A R/B",
    "OBJECT_TYPE": "ROCKET BODY",
    "CLASSIFICATION_TYPE": "U",
    "INTLDES": "18084L",
    "EPOCH": "2023-05-23 19:38:28",
    "EPOCH_MICROSECONDS": "176288",
    "MEAN_MOTION": "15.08293373",
    "ECCENTRICITY": "0.0050457",
    "INCLINATION": "98.8948",
    "RA_OF_ASC_NODE": "164.1147",
    "ARG_OF_PERICENTER": "222.8756",
    "MEAN_ANOMALY": "136.8529",
    "EPHEMERIS_TYPE": "0",
    "ELEMENT_SET_NO": "999",
    "REV_AT_EPOCH": "25054",
    "BSTAR": "0.00031982",
    "MEAN_MOTION_DOT": "0.00005021",
    "MEAN_MOTION_DDOT": "0",
    "FILE": "3915766",
    "TLE_LINE0": "0 H-2A R/B",
    "TLE_LINE1": "1 43682U 18084L   23143.81838167  .00005021  00000-0  31982-3 0  9993",
    "TLE_LINE2": "2 43682  98.8948 164.1147 0050457 222.8756 136.8529 15.08293373250549",
    "OBJECT_ID": "2018-084L",
    "OBJECT_NUMBER": "43682",
    "SEMIMAJOR_AXIS": "6919.552",
    "PERIOD": "95.472",
    "APOGEE": "576.331",
    "PERIGEE": "506.503",
    "DECAYED": "0"
  }
]